[{"OBJECT_NAME":"STARLINK-30358","OBJECT_ID":"2023-144R","EPOCH":"2026-03-08T23:42:47.774880","MEAN_MOTION":15.27573323,"ECCENTRICITY":0.00017141,"INCLINATION":43.0019,"RA_OF_ASC_NODE":288.8588,"ARG_OF_PERICENTER":277.1057,"MEAN_ANOMALY":82.96,"EPHEMERIS_TYPE":0,"CLASSIFICATION_TYPE":"U","NORAD_CAT_ID":57879,"ELEMENT_SET_NO":999,"REV_AT_EPOCH":13753,"BSTAR":-0.00010012835,"MEAN_MOTION_DOT":-3.016e-5,"MEAN_MOTION_DDOT":0},{"OBJECT_NAME":"OBJECT A","OBJECT_ID":"2025-234A","EPOCH":"2026-03-09T23:03:34.210368","MEAN_MOTION":15.32505956,"ECCENTRICITY":0.00130678,"INCLINATION":97.4388,"RA_OF_ASC_NODE":139.352,"ARG_OF_PERICENTER":148.634,"MEAN_ANOMALY":211.5684,"EPHEMERIS_TYPE":0,"CLASSIFICATION_TYPE":"U","NORAD_CAT_ID":66053,"ELEMENT_SET_NO":999,"REV_AT_EPOCH":2164,"BSTAR":0.0014840662,"MEAN_MOTION_DOT":0.00046856,"MEAN_MOTION_DDOT":0}]
